     2.100          NAVIGATION                              RINEX VERSION / TYPE
fic2rin                                 07/17/2017 00:06:37 PGM / RUN BY / DATE
                                                            END OF HEADER
28 17  7 16  1 59 44.0  .629345420748D-03  .295585778076D-11  .000000000000D+00
     .450000000000D+02 -.306875000000D+02  .362157942475D-08  .198370876411D+01
    -.169314444065D-05  .197240826674D-01  .933930277824D-05  .515365477943D+04
     .718400000000D+04  .379979610443D-06  .873695530389D+00 -.257045030594D-06
     .988258652300D+00  .208718750000D+03 -.156701969552D+01 -.750745557280D-08
    -.242510101519D-09  .100000000000D+01  .195800000000D+04  .000000000000D+00
     .240000000000D+01  .000000000000D+00 -.111758708954D-07  .450000000000D+02
     .600000000000D+01  .400000000000D+01
 2 17  7 16  2  0  0.0  .376178883016D-03 -.841282599140D-11  .000000000000D+00
     .181000000000D+03 -.138437500000D+02  .530843540336D-08 -.757327436745D+00
    -.393018126488D-06  .169362153392D-01  .540912151337D-05  .515354253387D+04
     .720000000000D+04 -.141561031342D-06  .283732685714D+01  .307336449623D-06
     .947176839043D+00  .273031250000D+03 -.197042688698D+01 -.876607942811D-08
     .231081054025D-09  .100000000000D+01  .195800000000D+04  .000000000000D+00
     .240000000000D+01  .000000000000D+00 -.204890966415D-07  .181000000000D+03
     .600000000000D+01  .400000000000D+01
 5 17  7 16  2  0  0.0 -.371364876628D-04  .159161572810D-11  .000000000000D+00
     .490000000000D+02 -.621875000000D+02  .503342394803D-08  .186699597624D+01
    -.307895243168D-05  .506855046842D-02  .956468284130D-05  .515379036522D+04
     .720000000000D+04 -.115483999252D-06 -.236685324549D+01  .298023223877D-07
     .946927026763D+00  .190375000000D+03  .553263593855D+00 -.827427322812D-08
    -.171078554680D-09  .100000000000D+01  .195800000000D+04  .000000000000D+00
     .240000000000D+01  .000000000000D+00 -.107102096081D-07  .490000000000D+02
     .600000000000D+01  .400000000000D+01
 7 17  7 16  2  0  0.0  .327622052282D-03 -.454747350886D-11  .000000000000D+00
     .780000000000D+02  .203750000000D+02  .468912389226D-08 -.169750774280D+01
     .968575477600D-06  .108476977330D-01  .501424074173D-05  .515372478294D+04
     .720000000000D+04  .484287738800D-07 -.234764926970D+00 -.197440385818D-06
     .962026161211D+00  .283562500000D+03 -.258539313529D+01 -.816534011919D-08
    -.104290058385D-09  .100000000000D+01  .195800000000D+04  .000000000000D+00
     .240000000000D+01  .000000000000D+00 -.111758708954D-07  .780000000000D+02
     .600000000000D+01  .400000000000D+01
11 17  7 16  2  0  0.0 -.702533870935D-03 -.261479726760D-11  .000000000000D+00
     .720000000000D+02  .165937500000D+02  .608596779070D-08 -.167427082517D+01
     .136159360409D-05  .169642119436D-01  .444054603577D-05  .515371666336D+04
     .720000000000D+04  .894069671631D-07  .248605086115D+01  .393018126488D-06
     .901631564711D+00  .261656250000D+03  .166201755647D+01 -.895858744684D-08
     .360014996070D-09  .100000000000D+01  .195800000000D+04  .000000000000D+00
     .340000000000D+01  .000000000000D+00 -.121071934700D-07  .720000000000D+02
     .600000000000D+01  .400000000000D+01
12 17  7 16  2  0  0.0  .378805212677D-03 -.102318153949D-11  .000000000000D+00
     .580000000000D+02 -.229062500000D+02  .365515225176D-08 -.231538359327D+01
    -.110454857349D-05  .660798128229D-02  .843219459057D-05  .515375541496D+04
     .720000000000D+04 -.484287738800D-07  .850304405106D+00 -.113621354103D-06
     .988996511606D+00  .232343750000D+03  .905928049780D+00 -.759888795276D-08
    -.188222125921D-09  .100000000000D+01  .195800000000D+04  .000000000000D+00
     .240000000000D+01  .000000000000D+00 -.125728547573D-07  .580000000000D+02
     .600000000000D+01  .400000000000D+01
13 17  7 16  2  0  0.0 -.876118429005D-04 -.795807864051D-12  .000000000000D+00
     .790000000000D+02  .490312500000D+02  .453233164695D-08 -.584943361353D+00
     .269897282124D-05  .355484697502D-02  .909529626369D-05  .515369338608D+04
     .720000000000D+04  .391155481339D-07 -.118622783072D+01 -.894069671631D-07
     .969100821339D+00  .205406250000D+03  .181586917643D+01 -.812140971788D-08
     .105004373854D-09  .100000000000D+01  .195800000000D+04  .000000000000D+00
     .340000000000D+01  .000000000000D+00 -.111758708954D-07  .790000000000D+02
     .600000000000D+01  .400000000000D+01
14 17  7 16  2  0  0.0 -.777957029641D-04 -.125055521494D-11  .000000000000D+00
     .980000000000D+02  .550625000000D+02  .467269463649D-08  .776767148612D+00
     .297091901302D-05  .931874848902D-02  .912882387638D-05  .515367217064D+04
     .720000000000D+04 -.135973095894D-06 -.122602185913D+01  .558793544769D-07
     .961609634787D+00  .207968750000D+03 -.195554304579D+01 -.824248618978D-08
     .500020827875D-11  .100000000000D+01  .195800000000D+04  .000000000000D+00
     .340000000000D+01  .000000000000D+00 -.931322574615D-08  .980000000000D+02
     .600000000000D+01  .400000000000D+01
15 17  7 16  2  0  0.0 -.353351701051D-03 -.568434188608D-12  .000000000000D+00
     .650000000000D+02  .317812500000D+02  .546915638374D-08  .215291625040D+00
     .184029340744D-05  .931910565123D-02  .915117561817D-05  .515357189369D+04
     .720000000000D+04  .279396772385D-07 -.137606394240D+01  .800937414169D-07
     .928639678873D+00  .182343750000D+03  .583698758928D+00 -.858214319500D-08
    -.110718897601D-10  .100000000000D+01  .195800000000D+04  .000000000000D+00
     .240000000000D+01  .000000000000D+00 -.107102096081D-07  .650000000000D+02
     .600000000000D+01  .400000000000D+01
16 17  7 16  2  0  0.0  .360119156539D-04  .341060513165D-12  .000000000000D+00
     .600000000000D+02 -.112500000000D+02  .370622580775D-08  .200275415665D+01
    -.653788447380D-06  .929468614049D-02  .922754406929D-05  .515373005486D+04
     .720000000000D+04 -.141561031342D-06  .869168248049D+00  .409781932831D-07
     .989454517609D+00  .219906250000D+03  .461029526016D+00 -.772496463293D-08
    -.281083136812D-09  .100000000000D+01  .195800000000D+04  .000000000000D+00
     .240000000000D+01  .000000000000D+00 -.107102096081D-07  .600000000000D+02
     .600000000000D+01  .400000000000D+01
17 17  7 16  2  0  0.0 -.169223174453D-03  .216004991671D-11  .000000000000D+00
     .480000000000D+02  .204687500000D+02  .400730977768D-08  .108771235252D+01
     .105984508991D-05  .116602238268D-01  .857003033161D-05  .515366136169D+04
     .720000000000D+04 -.186264514923D-06  .188667574565D+01 -.111758708954D-07
     .980251876362D+00  .221968750000D+03 -.184720278533D+01 -.810176604250D-08
     .350728894981D-09  .100000000000D+01  .195800000000D+04  .000000000000D+00
     .240000000000D+01  .000000000000D+00 -.111758708954D-07  .480000000000D+02
     .600000000000D+01  .400000000000D+01
18 17  7 16  2  0  0.0  .623887870461D-03  .136424205266D-11  .000000000000D+00
     .690000000000D+02 -.598437500000D+02  .532593613233D-08  .254030504188D+01
    -.316277146339D-05  .181431930978D-01  .867061316967D-05  .515362096596D+04
     .720000000000D+04  .121071934700D-06 -.239694122353D+01 -.223517417908D-06
     .925763037724D+00  .190125000000D+03 -.179290993822D+01 -.812819571483D-08
    -.203222750758D-09  .100000000000D+01  .195800000000D+04  .000000000000D+00
     .240000000000D+01  .000000000000D+00 -.111758708954D-07  .690000000000D+02
     .600000000000D+01  .400000000000D+01
19 17  7 16  2  0  0.0 -.495451036841D-03  .159161572810D-11  .000000000000D+00
     .790000000000D+02  .205625000000D+02  .401230998596D-08 -.216506542664D+01
     .912696123123D-06  .102694904199D-01  .796839594841D-05  .515367798424D+04
     .720000000000D+04  .147148966789D-06  .193441919776D+01 -.316649675369D-07
     .977567799120D+00  .227375000000D+03  .102401438313D+01 -.780782522726D-08
     .513235664040D-09  .100000000000D+01  .195800000000D+04  .000000000000D+00
     .240000000000D+01  .000000000000D+00 -.153668224812D-07  .790000000000D+02
     .600000000000D+01  .400000000000D+01
20 17  7 16  2  0  0.0  .479862093925D-03  .136424205266D-11  .000000000000D+00
     .460000000000D+02 -.581250000000D+02  .552951604082D-08  .161887974644D+00
    -.289641320705D-05  .436849845573D-02  .855885446072D-05  .515370780563D+04
     .720000000000D+04 -.391155481339D-07 -.244820569709D+01 -.372529029846D-07
     .927166865616D+00  .198375000000D+03  .162610685580D+01 -.860178687038D-08
    -.147863301957D-09  .100000000000D+01  .195800000000D+04  .000000000000D+00
     .240000000000D+01  .000000000000D+00 -.838190317154D-08  .460000000000D+02
     .600000000000D+01  .400000000000D+01
21 17  7 16  2  0  0.0 -.494132284075D-03  .261479726760D-11  .000000000000D+00
     .660000000000D+02 -.236875000000D+02  .514021411055D-08 -.283633534100D+01
    -.142492353916D-05  .239457526477D-01  .438652932644D-05  .515364767265D+04
     .720000000000D+04  .450760126114D-06  .284635491228D+01  .128522515297D-06
     .940575759144D+00  .277250000000D+03 -.165732512092D+01 -.819569852660D-08
     .286083345091D-09  .100000000000D+01  .195800000000D+04  .000000000000D+00
     .340000000000D+01  .000000000000D+00 -.977888703346D-08  .660000000000D+02
     .600000000000D+01  .400000000000D+01
22 17  7 16  2  0  0.0 -.559967011213D-04 -.123918653117D-10  .000000000000D+00
     .900000000000D+02 -.512812500000D+02  .565202114365D-08  .500446633588D+00
    -.262446701527D-05  .745902315248D-02  .929832458496D-05  .515377838135D+04
     .720000000000D+04 -.428408384323D-07 -.239717349103D+01  .447034835815D-07
     .923821618159D+00  .184281250000D+03 -.170363850770D+01 -.868321883378D-08
    -.171435712414D-09  .100000000000D+01  .195800000000D+04  .000000000000D+00
     .240000000000D+01  .000000000000D+00 -.176951289177D-07  .900000000000D+02
     .600000000000D+01  .400000000000D+01
